1 19336U 88064A   98134.13577157  .00000051  00000-0  10000-3 0  6615
2 19336  82.5414  33.9582 0016210 299.8004  60.1508 13.16987719471082
1 19336U 88064A   98134.21174235  .00000051  00000-0  10000-3 0  6625
2 19336  82.5414  33.9045 0016204 299.6237  60.3273 13.16987733471093
1 19336U 88064A   98134.81950845  .00000051  00000-0  10000-3 0  6686
2 19336  82.5415  33.4745 0016243 297.8824  62.0653 13.16987820471178
1 19336U 88064A   98135.12339173  .00000051  00000-0  10000-3 0  6710
2 19336  82.5417  33.2598 0016215 297.0629  62.8839 13.16987848471217
1 19336U 88064A   98135.27533327  .00000051  00000-0  10000-3 0  6746
2 19336  82.5418  33.1525 0016195 296.6943  63.2521 13.16987876471234
1 19336U 88064A   98135.80712923  .00000051  00000-0  10000-3 0  6836
2 19336  82.5418  32.7763 0016158 295.3049  64.6398 13.16987891471307
1 19336U 88064A   98136.11101285  .00000051  00000-0  10000-3 0  6878
2 19336  82.5417  32.5613 0016274 294.6867  65.2561 13.16987873471340
1 19336U 88064A   98136.18698367  .00000051  00000-0  10000-3 0  6888
2 19336  82.5417  32.5075 0016281 294.4879  65.4543 13.16987872471353
1 19336U 88064A   98136.79475077  .00000051  00000-0  10000-3 0  6910
2 19336  82.5415  32.0773 0016179 292.8070  67.1341 13.16987860471433
1 19336U 88064A   98137.09863439  .00000051  00000-0  10000-3 0  6940
2 19336  82.5416  31.8626 0016217 292.0483  67.8915 13.16987844471471
1 19336U 88064A   98137.47848878  .00000051  00000-0  10000-3 0  6997
2 19336  82.5416  31.5941 0016253 291.1331  68.8052 13.16987839471523
1 19336U 88064A   98137.78237350  .00000051  00000-0  10000-3 0  7078
2 19336  82.5413  31.3789 0016002 290.1181  69.8215 13.16987697471560
1 19336U 88064A   98138.16222886  .00000051  00000-0  10000-3 0  7136
2 19336  82.5406  31.1097 0016295 289.2275  70.7081 13.16987527471619
1 19336U 88064A   98138.23819987  .00000051  00000-0  10000-3 0  6586
2 19336  82.5406  31.0560 0016321 289.0466  70.8887 13.16987516471627
1 19336U 88064A   98138.76999628  .00000051  00000-0  10000-3 0  6608
2 19336  82.5404  30.6795 0016227 287.5853  72.3492 13.16987502471699
1 19336U 88064A   98139.14985079  .00000051  00000-0  10000-3 0  6640
2 19336  82.5405  30.4109 0016243 286.6288  73.3050 13.16987516471749
1 19336U 88064A   98139.22582177  .00000051  00000-0  10000-3 0  6674
2 19336  82.5405  30.3573 0016257 286.3661  73.5672 13.16987493471757
1 19336U 88064A   98139.75761835  .00000051  00000-0  10000-3 0  6706
2 19336  82.5403  29.9807 0016116 284.5738  75.3590 13.16987449471826
1 19336U 88064A   98140.13747318  .00000051  00000-0  10000-3 0  6777
2 19336  82.5401  29.7116 0016139 283.4745  76.4577 13.16987413471879
1 19336U 88064A   98140.21344409  .00000051  00000-0  10000-3 0  6781
2 19336  82.5401  29.6578 0016142 283.2894  76.6427 13.16987416471887
1 19336U 88064A   98140.74524042  .00000051  00000-0  10000-3 0  6827
2 19336  82.5400  29.2814 0016104 281.9421  77.9892 13.16987434471952
1 19336U 88064A   98141.12509483  .00000051  00000-0  10000-3 0  6866
2 19336  82.5401  29.0126 0016076 280.8752  79.0560 13.16987474472006
1 19336U 88064A   98141.20106572  .00000051  00000-0  10000-3 0  6878
2 19336  82.5401  28.9589 0016074 280.6873  79.2440 13.16987482472016
1 19336U 88064A   98141.73286127  .00000051  00000-0  10000-3 0  6938
2 19336  82.5403  28.5825 0016180 279.5285  80.4007 13.16987592472081
1 19336U 88064A   98142.11271538  .00000051  00000-0  10000-3 0  6986
2 19336  82.5406  28.3142 0016086 278.4587  81.4714 13.16987691472134
1 19336U 88064A   98142.18868621  .00000051  00000-0  10000-3 0  6999
2 19336  82.5407  28.2605 0016080 278.2650  81.6650 13.16987702472146
1 19336U 88064A   98142.72048186  .00000051  00000-0  10000-3 0  6591
2 19336  82.5408  27.8841 0016144 276.7833  83.1455 13.16987786472211
1 19336U 88064A   98142.72048186  .00000051  00000-0  10000-3 0  7031
2 19336  82.5408  27.8841 0016144 276.7833  83.1455 13.16987786472211
1 19336U 88064A   98143.10033582  .00000051  00000-0  10000-3 0  6633
2 19336  82.5410  27.6155 0016006 275.1744  84.7553 13.16987862472267
1 19336U 88064A   98143.17630666  .00000051  00000-0  10000-3 0  6647
2 19336  82.5410  27.5617 0015997 274.9875  84.9424 13.16987878472276
1 19336U 88064A   98143.70810212  .00000051  00000-0  10000-3 0  6711
2 19336  82.5412  27.1858 0016094 273.6868  86.2418 13.16987986472344
1 19336U 88064A   98144.16392694  .00000051  00000-0  10000-3 0  6777
2 19336  82.5414  26.8634 0015981 272.0907  87.8387 13.16988075472404
1 19336U 88064A   98144.77169373  .00000051  00000-0  10000-3 0  6859
2 19336  82.5415  26.4335 0015995 270.4506  89.4784 13.16988124472483
1 19336U 88064A   98145.15154800  .00000051  00000-0  10000-3 0  6918
2 19336  82.5417  26.1651 0015969 269.5042  90.4252 13.16988176472533
1 19336U 88064A   98145.37946060  .00000051  00000-0  10000-3 0  6931
2 19336  82.5417  26.0038 0015974 268.9888  90.9404 13.16988196472567
1 19336U 88064A   98145.75931517  .00000051  00000-0  10000-3 0  6990
2 19336  82.5416  25.7350 0015937 267.7613  92.1683 13.16988183472616
1 19336U 88064A   98146.13916990  .00000051  00000-0  10000-3 0  7060
2 19336  82.5415  25.4663 0016045 267.1904  92.7380 13.16988151472667
1 19336U 88064A   98146.21514081  .00000051  00000-0  10000-3 0  7075
2 19336  82.5415  25.4126 0016048 267.0310  92.8976 13.16988157472673
1 19336U 88064A   98146.74693699  .00000051  00000-0  10000-3 0  6604
2 19336  82.5415  25.0362 0016035 265.5610  94.3677 13.16988182472744
1 19336U 88064A   98146.74693699  .00000051  00000-0  10000-3 0  7098
2 19336  82.5415  25.0362 0016035 265.5610  94.3677 13.16988182472744
1 19336U 88064A   98147.12679186  .00000051  00000-0  10000-3 0  6680
2 19336  82.5414  24.7676 0016108 264.8013  95.1271 13.16988139472793
1 19336U 88064A   98147.50664632  .00000051  00000-0  10000-3 0  6705
2 19336  82.5413  24.4988 0016055 263.3683  96.5592 13.16988095472841
1 19336U 88064A   98147.73456009  .00000051  00000-0  10000-3 0  6730
2 19336  82.5411  24.3375 0015960 262.1915  97.7392 13.16988011472879
1 19336U 88064A   98148.11441594  .00000051  00000-0  10000-3 0  6804
2 19336  82.5406  24.0686 0016192 261.5965  98.3318 13.16987795472920
1 19336U 88064A   98148.19038694  .00000051  00000-0  10000-3 0  6816
2 19336  82.5406  24.0149 0016194 261.4101  98.5186 13.16987798472936
1 19336U 88064A   98148.72218368  .00000051  00000-0  10000-3 0  6835
2 19336  82.5405  23.6384 0016122 259.7817 100.1480 13.16987783473006
1 19336U 88064A   98149.10203861  .00000051  00000-0  10000-3 0  6919
2 19336  82.5405  23.3697 0016163 258.9659 100.9639 13.16987757473050
1 19336U 88064A   98149.48189337  .00000051  00000-0  10000-3 0  6933
2 19336  82.5404  23.1007 0016130 257.6021 102.3281 13.16987735473106
1 19336U 88064A   98149.78577783  .00000051  00000-0  10000-3 0  6965
2 19336  82.5403  22.8856 0016063 256.5115 103.4215 13.16987699473142
1 19336U 88064A   98150.16563261  .00000051  00000-0  10000-3 0  7045
2 19336  82.5403  22.6170 0016075 255.6541 104.2796 13.16987713473190
1 19336U 88064A   98150.69742949  .00000051  00000-0  10000-3 0  7089
2 19336  82.5403  22.2406 0016018 254.2436 105.6917 13.16987715473263
1 19336U 88064A   98151.15325494  .00000051  00000-0  10000-3 0  7139
2 19336  82.5405  21.9183 0015996 252.8526 107.0845 13.16987774473329
1 19336U 88064A   98151.68505093  .00000051  00000-0  10000-3 0  6670
2 19336  82.5405  21.5417 0016072 251.4362 108.5015 13.16987854473395
1 19336U 88064A   98152.14087618  .00000051  00000-0  10000-3 0  6726
2 19336  82.5407  21.2194 0016023 249.8361 110.1039 13.16987934473453
1 19336U 88064A   98152.21684709  .00000051  00000-0  10000-3 0  6739
2 19336  82.5407  21.1655 0016016 249.6236 110.3167 13.16987945473462
1 19336U 88064A   98152.67267250  .00000051  00000-0  10000-3 0  6760
2 19336  82.5407  20.8429 0016046 248.6029 111.3388 13.16988008473523
1 19336U 88064A   98153.12849743  .00000051  00000-0  10000-3 0  6797
2 19336  82.5411  20.5209 0016007 246.4223 113.5222 13.16988097473585
1 19336U 88064A   98153.73626431  .00000051  00000-0  10000-3 0  6836
2 19336  82.5412  20.0910 0016052 245.1417 114.8037 13.16988189473660
1 19336U 88064A   98154.11611874  .00000051  00000-0  10000-3 0  6867
2 19336  82.5414  19.8224 0016013 244.1097 115.8379 13.16988261473713
1 19336U 88064A   98154.72388561  .00000051  00000-0  10000-3 0  6891
2 19336  82.5415  19.3923 0016045 242.7957 117.1530 13.16988351473791
1 19336U 88064A   98155.10374008  .00000051  00000-0  10000-3 0  6941
2 19336  82.5415  19.1234 0016029 241.7071 118.2436 13.16988405473845
1 19336U 88064A   98155.17971095  .00000051  00000-0  10000-3 0  6622
2 19336  82.5415  19.0696 0016022 241.6299 118.3208 13.16988416473851
1 19336U 88064A   98155.63553678  .00000051  00000-0  10000-3 0  6659
2 19336  82.5413  18.7467 0015996 240.2729 119.6799 13.16988414473917
1 19336U 88064A   98156.16733345  .00000051  00000-0  10000-3 0  6738
2 19336  82.5411  18.3699 0016006 239.2101 120.7445 13.16988437473986
1 19336U 88064A   98156.69913086  .00000051  00000-0  10000-3 0  6828
2 19336  82.5410  17.9937 0015936 237.3370 122.6212 13.16988371474052
1 19336U 88064A   98157.15495705  .00000051  00000-0  10000-3 0  6890
2 19336  82.5409  17.6713 0016005 236.8170 123.1417 13.16988318474110
1 19336U 88064A   98157.68675574  .00000051  00000-0  10000-3 0  6982
2 19336  82.5405  17.2947 0015878 234.0993 125.8654 13.16988136474188
1 19336U 88064A   98158.14258219  .00000051  00000-0  10000-3 0  7078
2 19336  82.5403  16.9724 0016128 233.3009 126.6631 13.16987993474245
1 19336U 88064A   98158.52243699  .00000051  00000-0  10000-3 0  7087
2 19336  82.5403  16.7036 0016141 232.2587 127.7073 13.16988017474298
1 19336U 88064A   98158.67437939  .00000051  00000-0  10000-3 0  7131
2 19336  82.5402  16.5961 0016093 231.6172 128.3503 13.16987976474312
